UWE-4                   
1 43880U 18111E   25079.21020636  .00036702  00000+0  15876-2 0  9994
2 43880  97.5938 351.0280 0014905 128.2686 231.9893 15.22249601339234
D-STAR ONE (SPARROW)    
1 43881U 18111F   25078.93794023  .00049616  00000+0  19038-2 0  9993
2 43881  97.6131 354.3424 0008810 146.9556 213.2234 15.26275376341314
LEMUR-2-REMY-COLTON     
1 43884U 18111J   25078.77241329  .00584778  00000+0  45203-2 0  9990
2 43884  97.6114   8.1061 0010386 121.7583 238.4692 15.70129036340160
JILIN-1 09              
1 43943U 19005B   25079.21063728  .00015451  00000+0  82455-3 0  9992
2 43943  97.4771 174.7399 0002685 219.3285 140.7752 15.15228759340289
JILIN-1 10              
1 43946U 19005E   25079.23839011  .00016220  00000+0  78144-3 0  9998
2 43946  97.4772 175.4268 0010275  71.3471 288.8878 15.18769412340252
EGYPTSAT-A (MISRSAT-A)  
1 44047U 19008A   25079.16236043  .00002558  00000+0  41176-3 0  9996
2 44047  98.0030 145.4466 0001340 110.2133 249.9219 14.72378661326439
EMISAT                  
1 44078U 19018A   25079.18110080  .00000933  00000+0  28640-3 0  9991
2 44078  98.2973 138.2556 0018972 145.5226 214.7199 14.43708088314548
JILIN-1 GAOFEN 3A       
1 44312U 19032C   25079.06999163  .00022192  00000+0  10026-2 0  9991
2 44312  44.9836 312.9725 0012690 218.4332 141.5645 15.20582624318520
XIAOXIANG 4             
1 44313U 19032D   25078.93474135  .00091296  00000+0  20190-2 0  9998
2 44313  44.9919 267.9218 0017108 243.8864 116.0264 15.42726987319082
WT 1A                   
1 44315U 19032F   25079.00286708  .00052320  00000+0  16053-2 0  9994
2 44315  44.9871 274.8781 0016231 248.5976 111.3177 15.32922599318968
WT 1B                   
1 44316U 19032G   25079.18332383  .00023746  00000+0  12436-2 0  9996
2 44316  44.9796 356.5792 0014572 181.0604 179.0245 15.15382449317972
PROX-1                  
1 44339U 19036A   25078.83987013  .00028588  00000+0  38851-2 0  9990
2 44339  23.9961 237.8276 0006477 215.6707 144.3357 14.77374477305996
NPSAT1                  
1 44340U 19036B   25078.90191039  .00016432  00000+0  27549-2 0  9992
2 44340  23.9988 282.0991 0008718 135.3780 224.7417 14.68132318305505
FORMOSAT 7-3            
1 44343U 19036E   25078.31631494  .00015436  00000+0  91550-3 0  9991
2 44343  24.0000  60.0261 0001540 127.8021 232.2622 15.09496157314501
FORMOSAT 7-1            
1 44349U 19036L   25078.64712899  .00017750  00000+0  10545-2 0  9997
2 44349  23.9966 233.7408 0002505  64.7202 295.3561 15.09529045316383
FORMOSAT 7-4            
1 44350U 19036M   25078.00795239  .00017398  00000+0  10338-2 0  9996
2 44350  23.9989 300.2311 0001842  89.8651 270.2063 15.09511113315725
FORMOSAT 7-2            
1 44351U 19036N   25078.95618641  .00017763  00000+0  10553-2 0  9997
2 44351  23.9986 348.0349 0001931 129.2404 230.8271 15.09528607315356
FORMOSAT 7-6            
1 44353U 19036Q   25078.49296379  .00017883  00000+0  10625-2 0  9991
2 44353  23.9975 172.0409 0002046  96.2691 263.8046 15.09530144313462
FORMOSAT 7-5            
1 44358U 19036V   25078.40458210  .00013586  00000+0  80304-3 0  9999
2 44358  23.9985 112.4276 0001832 123.8099 236.2579 15.09514780313978
METEOR-M2 2             
1 44387U 19038A   25079.21297330  .00000480  00000+0  22832-3 0  9998
2 44387  98.8675  56.1267 0000411 182.8060 177.3116 14.24165469296677
SONATE                  
1 44400U 19038Q   25078.58787961  .00148001  00000+0  14762-2 0  9991
2 44400  97.7059  96.3396 0009595 172.2554 187.8854 15.65122342316643
COSMOS 2535             
1 44421U 19039A   25079.14068460  .00003885  00000+0  40421-3 0  9996
2 44421  97.6300 118.6898 0007082 286.5402  73.5038 14.90402997308874
QIANSHENG 1-01          
1 44486U 19052A   25079.14566961  .00125652  00000+0  18742-2 0  9998
2 44486  97.3667 155.3473 0005785  26.5455 333.6094 15.54618329309101
GLOBAL-4                
1 44499U 19054E   25078.86480384  .00053359  00000+0  12383-2 0  9995
2 44499  45.0125 272.7784 0009153 236.2490 123.7527 15.41624413310035
ZY-1 02D                
1 44528U 19059A   25079.21969930  .00000697  00000+0  25731-3 0  9991
2 44528  98.3749 150.2536 0002233  63.2704 296.8710 14.35420366289218
TAURUS-1 (JINNIUZUO 1)  
1 44530U 19059C   25079.18329573  .00021368  00000+0  40785-2 0  9996
2 44530  98.5955 214.8569 0009604 279.0078  81.0036 14.63935657292028
ZHUHAI-1 03A            
1 44534U 19060A   25079.21882071  .00123456  00000+0  16816-2 0  9992
2 44534  97.5095 220.3385 0007587 126.1088 234.0870 15.57086061306555
ZHUHAI-1 03B            
1 44536U 19060C   25079.15053004  .00042003  00000+0  14873-2 0  9992
2 44536  97.5039 218.4986 0015618 153.5443 206.6597 15.28889186306438
ZHUHAI-1 03C            
1 44537U 19060D   25079.20616635  .00052075  00000+0  14492-2 0  9991
2 44537  97.5303 219.9443 0021889 126.5822 233.7440 15.36409225306580
ZHUHAI-1 03D            
1 44538U 19060E   25079.18062173  .00039663  00000+0  15109-2 0  9995
2 44538  97.4866 214.0027 0013957 133.1018 227.1391 15.26517127306342
ZHUHAI-1 03E            
1 44539U 19060F   25079.17249973  .00035601  00000+0  14689-2 0  9990
2 44539  97.5063 216.1382 0013156 182.0678 178.0507 15.23880170306246
ATLAS 5 CENTAUR DEB     
1 44694U 18079BG  25075.71022369 -.00000084  00000+0  00000+0 0  9992
2 44694  13.0393  76.3820 4774355 226.2736  82.8165  1.77433959 38444
GAOFEN-7                
1 44703U 19072A   25079.18048477  .00014545  00000+0  65289-3 0  9990
2 44703  97.2982 150.9690 0010110 150.3804 209.8006 15.21234410298615
STARLINK-1010           
1 44716U 19074D   25079.22080282  .00037506  00000+0  25253-2 0  9999
2 44716  53.0551 337.8910 0001523  66.4294 293.6855 15.06373162295475
JILIN-1 GAOFEN 2A       
1 44777U 19075A   25079.17858808  .00025337  00000+0  10003-2 0  9994
2 44777  97.5385 151.1066 0007955 249.2659 110.7727 15.25486977295365
NINGXIA-1 1             
1 44779U 19076A   25079.17851611  .00000132  00000+0  17042-3 0  9999
2 44779  45.0073  48.5302 0010462 175.3000 184.7934 14.01900265274145
NINGXIA-1 5             
1 44783U 19076E   25079.19331111  .00000145  00000+0  17879-3 0  9996
2 44783  45.0071  47.8322 0010189 162.4086 197.7102 14.01924811274154
KL-ALPHA A              
1 44785U 19077A   25078.94522093  .00000084  00000+0  10217-3 0  9993
2 44785  88.9009 272.8314 0011031   4.4678 355.6573 13.55983651264176
CARTOSAT-3              
1 44804U 19081A   25079.21937896  .00011485  00000+0  54504-3 0  9996
2 44804  97.4906 141.5601 0013256 290.8023  69.1791 15.19345881294492
JILIN-1 GAOFEN 2B       
1 44836U 19086A   25079.22737816  .00017109  00000+0  93484-3 0  9996
2 44836  97.5378 149.8910 0017798  88.2424 272.0846 15.14233218291650
DUCHIFAT-3              
1 44854U 19089C   25079.20223695  .00069052  00000+0  18028-2 0  9996
2 44854  36.9458 149.5395 0005768 227.1035 132.9235 15.37698024290375
ANGELS                  
1 44876U 19092D   25078.61625366  .00051127  00000+0  13272-2 0  9999
2 44876  97.4631 275.2288 0007875  65.1828 295.0235 15.38781408291511
TIANQIN 1 (CAS-6)       
1 44879U 19093A   25079.18451311  .00012059  00000+0  12010-2 0  9993
2 44879  97.8093 161.6266 0013532 121.6068 238.6473 14.91689075284272
ETRSS-1                 
1 44880U 19093B   25079.19899115  .00010657  00000+0  10579-2 0  9994
2 44880  97.8097 161.8651 0013537 122.7930 237.4594 14.91853301284279
TIANYAN 01              
1 44881U 19093C   25079.18996031  .00003393  00000+0  40029-3 0  9992
2 44881  97.7967 156.5383 0014958 135.2541 224.9884 14.85305572283999
TIANYAN 02              
1 44882U 19093D   25079.20286446  .00019218  00000+0  16510-2 0  9998
2 44882  97.8215 166.5909 0013105 113.1990 247.0613 14.97416457284498
CBERS 4A                
1 44883U 19093E   25079.18456057  .00004092  00000+0  52689-3 0  9995
2 44883  97.7979 154.6020 0002356 158.1544 201.9770 14.81613344283856
WEILAI 1R               
1 44884U 19093F   25079.22597484  .00015006  00000+0  13742-2 0  9994
2 44884  97.8101 164.4895 0011507 120.5310 239.7047 14.94986697284468
FLORIPASAT-1            
1 44885U 19093G   25079.18308012  .00018908  00000+0  16431-2 0  9999
2 44885  97.8162 166.6947 0012267 118.7086 241.5370 14.96980696284567
SHUNTIAN                
1 44886U 19093H   25079.17555834  .00010881  00000+0  10847-2 0  9992
2 44886  97.8211 165.1562 0013865 131.5071 228.7340 14.91676854284413
2019-093L               
1 44889U 19093L   25079.18917505  .00010198  00000+0  10405-2 0  9994
2 44889  97.7925 157.9132 0014077 118.4518 241.8120 14.90758765284058
ELEKTRO-L 3             
1 44903U 19095A   25078.88942198 -.00000090  00000+0  00000+0 0  9993
2 44903   0.0823  84.3157 0001438 265.8550 223.6738  1.00272147 19151
GONETS-M 14             
1 44905U 19096A   25079.20560613  .00000073  00000+0  45747-3 0  9992
2 44905  82.5294   6.0731 0014840  64.2573 296.0037 12.42889318237303
GONETS-M 15             
1 44906U 19096B   25078.90903173  .00000070  00000+0  43427-3 0  9991
2 44906  82.5314   6.6387 0016680  85.4036 274.8948 12.42892391237213
GONETS-M 16             
1 44907U 19096C   25078.85411706  .00000076  00000+0  47443-3 0  9990
2 44907  82.5260   5.8280 0012119 123.1591 237.0652 12.42892960237198
RS-44 & BREEZE-KM R/B   
1 44909U 19096E   25078.62154652  .00000024  00000+0  44709-4 0  9997
2 44909  82.5169 281.7464 0218299 127.0684 235.0598 12.79739336244204
JILIN-1 KUANFU 01       
1 45016U 20003A   25079.14005759  .00012124  00000+0  73895-3 0  9999
2 45016  97.5461 155.8462 0006862 165.9795 194.1626 15.10492889286793
XINGYUN-2 01            
1 45602U 20028A   25079.19860223  .00008145  00000+0  52154-3 0  9990
2 45602  97.4657  77.3489 0008757 336.3328  23.7497 15.08785409266317
XINGYUN-2 02            
1 45603U 20028B   25079.19181887  .00006956  00000+0  44661-3 0  9995
2 45603  97.5124  89.0109 0012629  39.0489 321.1649 15.08704338266311
